[{"OBJECT_NAME":"YAOGAN-9 01C","OBJECT_ID":"2010-009C","EPOCH":"2026-03-09T21:34:27.608160","MEAN_MOTION":13.45692023,"ECCENTRICITY":0.05305817,"INCLINATION":63.3649,"RA_OF_ASC_NODE":255.2819,"ARG_OF_PERICENTER":20.4525,"MEAN_ANOMALY":341.6898,"EPHEMERIS_TYPE":0,"CLASSIFICATION_TYPE":"U","NORAD_CAT_ID":36415,"ELEMENT_SET_NO":999,"REV_AT_EPOCH":78654,"BSTAR":6.9215105e-5,"MEAN_MOTION_DOT":6.0e-8,"MEAN_MOTION_DDOT":0},{"OBJECT_NAME":"CZ-6A DEB","OBJECT_ID":"2024-140ABU","EPOCH":"2026-03-09T14:30:52.406208","MEAN_MOTION":14.26624483,"ECCENTRICITY":0.0068369,"INCLINATION":89.0909,"RA_OF_ASC_NODE":292.0934,"ARG_OF_PERICENTER":140.7468,"MEAN_ANOMALY":219.8712,"EPHEMERIS_TYPE":0,"CLASSIFICATION_TYPE":"U","NORAD_CAT_ID":61804,"ELEMENT_SET_NO":999,"REV_AT_EPOCH":7741,"BSTAR":0.0036258,"MEAN_MOTION_DOT":8.992e-5,"MEAN_MOTION_DDOT":0}]
